OBJECT_NAME,OBJECT_ID,EPOCH,MEAN_MOTION,ECCENTRICITY,INCLINATION,RA_OF_ASC_NODE,ARG_OF_PERICENTER,MEAN_ANOMALY,EPHEMERIS_TYPE,CLASSIFICATION_TYPE,NORAD_CAT_ID,ELEMENT_SET_NO,REV_AT_EPOCH,BSTAR,MEAN_MOTION_DOT,MEAN_MOTION_DDOT
GEOSCAN 3 (RS92S3),2025-155T,2026-07-15T19:04:00.913728,15.36322671,.0008599,97.4553,167.0271,85.7555,274.4671,0,U,64893,999,8524,.33272E-3,.11719E-3,0
INNOSAT 3 (RS92S0),2025-155U,2026-07-15T19:30:04.369248,15.45849747,.0008247,97.4498,169.0401,89.1141,271.1053,0,U,64894,999,8538,.53668E-3,.26037E-3,0
KNACKSAT-2,1998-067XZ,2026-07-15T06:12:31.865760,15.62408935,.00079923,51.6274,153.0107,328.5700,31.4815,0,U,67683,999,2466,.38021354E-3,.3405E-3,0
