GEOSCAN 3 (RS92S3)      
1 64893U 25155T   26196.79445502  .00011719  00000+0  33272-3 0  9996
2 64893  97.4553 167.0271 0008599  85.7555 274.4671 15.36322671 85241
INNOSAT 3 (RS92S0)      
1 64894U 25155U   26196.81255057  .00026037  00000+0  53668-3 0  9994
2 64894  97.4498 169.0401 0008247  89.1141 271.1053 15.45849747 85387
KNACKSAT-2              
1 67683U 98067XZ  26196.25870215  .00034050  00000+0  38021-3 0  9992
2 67683  51.6274 153.0107 0007992 328.5700  31.4815 15.62408935 24669
